OBJECT_NAME,OBJECT_ID,EPOCH,MEAN_MOTION,ECCENTRICITY,INCLINATION,RA_OF_ASC_NODE,ARG_OF_PERICENTER,MEAN_ANOMALY,EPHEMERIS_TYPE,CLASSIFICATION_TYPE,NORAD_CAT_ID,ELEMENT_SET_NO,REV_AT_EPOCH,BSTAR,MEAN_MOTION_DOT,MEAN_MOTION_DDOT
LEMUR-2-FINNIAN,2025-276DX,2026-07-20T18:09:03.377376,15.00651615,.00068821,97.5347,271.7055,339.6977,20.3973,0,U,66782,999,2503,.13237825E-3,.1617E-4,0
LEMUR-2-STARLIGHT,2025-276DY,2026-07-21T03:24:26.468064,14.99404237,.00145694,97.5237,271.6217,29.2659,330.9377,0,U,66783,999,3528,.42784416E-3,.5194E-4,0
LEMUR-2-TARTIFLETTE,2025-276DZ,2026-07-21T03:22:14.263104,14.99385365,.00138286,97.5234,271.6280,38.0070,322.2126,0,U,66784,999,3528,.40272241E-3,.4882E-4,0
LEMUR-2-VUKASIN,2025-276EA,2026-07-21T04:08:44.219328,15.00579723,.00021227,97.5200,272.0268,33.3780,326.7577,0,U,66785,999,3524,.30092036E-3,.3742E-4,0
LEMUR-2-HOTSPUR-TOM,2025-276EB,2026-07-21T04:50:51.657792,14.99281418,.00135538,97.5213,271.6592,29.6635,330.5355,0,U,66786,999,3522,.36379133E-3,.4392E-4,0
LEMUR-2-MYRA,2025-276EC,2026-07-21T04:54:23.457888,15.00632509,.00185334,97.5224,271.9782,35.7742,324.4720,0,U,66787,999,3531,.35942189E-3,.4502E-4,0
LEMUR-2 FIKRETDENGIZ,2026-004A,2026-07-20T22:46:18.512832,14.88543101,.00097849,97.8036,199.9951,39.3350,320.8576,0,U,67363,999,2830,.32833972E-3,.3002E-4,0
TWILIGHT-1 OBJECT B,2026-004B,2026-07-20T23:43:51.115584,14.87805943,.00093149,97.8078,200.0319,28.9865,331.1867,0,U,67364,999,2831,.12739587E-3,.111E-4,0
LEMUR-2-MARIO-SOUSA,2026-004C,2026-07-21T06:20:03.280704,14.88758179,.00093967,97.8009,200.3004,39.9592,320.2314,0,U,67365,999,2836,.37604991E-3,.3464E-4,0
LEMUR-2-SONNENBLUME,2026-004E,2026-07-21T06:25:48.028800,14.88473629,.00090399,97.8005,200.2742,40.8767,319.3126,0,U,67367,999,2836,.20740644E-3,.1872E-4,0
LEMUR-2-WOBLER,2026-004F,2026-07-20T23:41:46.345344,14.88722677,.00090126,97.8057,200.1550,33.5154,326.6632,0,U,67368,999,2832,.27385379E-3,.2505E-4,0
LEMUR-2-GRAM-E-SUE,2026-004H,2026-07-21T04:21:27.439776,14.88607517,.00082491,97.7991,200.2059,44.5429,315.6450,0,U,67370,999,2835,.18291842E-3,.165E-4,0
LEMUR-2-KATIE,2026-004AA,2026-07-20T23:56:28.542048,14.90280948,.00029428,97.8051,200.5955,19.3742,340.7587,0,U,67387,999,2834,.35009358E-3,.3345E-4,0
LEMUR-2-HCS-BAZUS,2026-004AB,2026-07-20T23:54:03.311424,14.90288038,.0002444,97.8039,200.5715,20.6749,339.4568,0,U,67388,999,2834,.29559763E-3,.2816E-4,0
